{"type": "FeatureCollection", "features": [{"type": "Feature", "properties": {"shape_id": "00103", "corridor": "Indian Railways Mainline"}, "geometry": {"type": "LineString", "coordinates": [[73.970604, 15.267791], [79.8461843, 10.6869138]]}}, {"type": "Feature", "properties": {"shape_id": "00104", "corridor": "Indian Railways Mainline"}, "geometry": {"type": "LineString", "coordinates": [[79.846058, 10.759281], [73.970604, 15.267791]]}}, {"type": "Feature", "properties": {"shape_id": "00111", "corridor": "Indian Railways Mainline"}, "geometry": {"type": "LineString", "coordinates": [[73.045864, 19.268754], [88.221588, 22.572963]]}}, {"type": "Feature", "properties": {"shape_id": "00112", "corridor": "Indian Railways Mainline"}, "geometry": {"type": "LineString", "coordinates": [[88.221588, 22.572963], [82.167435, 22.057323], [79.078646, 21.11581]]}}, {"type": "Feature", "properties": {"shape_id": "00113", "corridor": "Indian Railways Mainline"}, "geometry": {"type": "LineString", "coordinates": [[73.045864, 19.268754], [75.1403, 20.5736], [91.461782, 26.078679]]}}, {"type": "Feature", "properties": {"shape_id": "00114", "corridor": "Indian Railways Mainline"}, "geometry": {"type": "LineString", "coordinates": [[91.461782, 26.078679], [75.1403, 20.5736], [72.956643, 19.172065]]}}, {"type": "Feature", "properties": {"shape_id": "00131", "corridor": "Indian Railways Mainline"}, "geometry": {"type": "LineString", "coordinates": [[76.35601, 26.018069], [75.900421, 25.230255], [76.5048, 25.0965], [79.1574, 9.2805]]}}, {"type": "Feature", "properties": {"shape_id": "00132", "corridor": "Indian Railways Mainline"}, "geometry": {"type": "LineString", "coordinates": [[79.1574, 9.2805], [78.1087, 9.9449], [76.5048, 25.0965], [75.900421, 25.230255], [76.35601, 26.018069]]}}, {"type": "Feature", "properties": {"shape_id": "00168", "corridor": "Indian Railways Mainline"}, "geometry": {"type": "LineString", "coordinates": [[76.99193, 17.054692], [79.135551, 12.972944], [77.542684, 8.088208], [79.1574, 9.2805], [78.4538, 9.6818], [79.135551, 12.972944], [76.8248, 17.3147], [75.8932, 17.6643]]}}, {"type": "Feature", "properties": {"shape_id": "00169", "corridor": "Indian Railways Mainline"}, "geometry": {"type": "LineString", "coordinates": [[74.480588, 19.780692], [75.788382, 21.046991], [80.400953, 23.833795], [82.971856, 25.29975], [82.1293, 26.7681]]}}, {"type": "Feature", "properties": {"shape_id": "00290", "corridor": "Indian Railways Mainline"}, "geometry": {"type": "LineString", "coordinates": [[77.187109, 28.582261], [75.890808, 26.836019], [73.728046, 24.582407], [73.699722, 24.566952], [70.928249, 26.91656], [73.041916, 26.350498], [77.4882, 27.2366], [77.989883, 27.157722], [77.445889, 27.788441], [77.187109, 28.582261]]}}, {"type": "Feature", "properties": {"shape_id": "00391", "corridor": "Indian Railways Mainline"}, "geometry": {"type": "LineString", "coordinates": [[84.5225, 26.8054], [84.7391, 26.758], [84.8444, 26.9869], [85.273304, 26.738252], [85.504847, 26.594514], [85.907235, 26.156748], [85.78743, 25.858374], [85.377846, 26.122151], [85.2155, 25.7029], [85.068892, 25.62155], [84.6625, 25.5488], [83.9817, 25.5616], [83.6681, 25.4192], [83.1196, 25.2785], [81.864796, 25.379548], [75.781803, 23.178554], [74.4382, 20.2498]]}}, {"type": "Feature", "properties": {"shape_id": "00392", "corridor": "Indian Railways Mainline"}, "geometry": {"type": "LineString", "coordinates": [[74.4382, 20.2498], [73.842287, 19.948017], [75.310936, 19.859566], [81.864796, 25.379548], [83.1196, 25.2785], [83.6681, 25.4192], [83.9817, 25.5616], [84.6625, 25.5488], [85.068892, 25.62155], [85.2155, 25.7029], [85.377846, 26.122151], [85.78743, 25.858374], [85.907235, 26.156748], [85.504847, 26.594514], [85.273304, 26.738252], [84.8444, 26.9869], [84.7391, 26.758], [84.5225, 26.8054]]}}, {"type": "Feature", "properties": {"shape_id": "00441", "corridor": "Indian Railways Mainline"}, "geometry": {"type": "LineString", "coordinates": [[88.374968, 22.566563], [77.156425, 28.659977]]}}, {"type": "Feature", "properties": {"shape_id": "00442", "corridor": "Indian Railways Mainline"}, "geometry": {"type": "LineString", "coordinates": [[77.156425, 28.659977], [88.374968, 22.566563]]}}, {"type": "Feature", "properties": {"shape_id": "00461", "corridor": "Indian Railways Mainline"}, "geometry": {"type": "LineString", "coordinates": [[77.166767, 28.714265], [76.8267, 30.3386], [74.9163, 32.6391], [74.935419, 32.982413], [74.7851, 34.0155]]}}, {"type": "Feature", "properties": {"shape_id": "00462", "corridor": "Indian Railways Mainline"}, "geometry": {"type": "LineString", "coordinates": [[74.7851, 34.0155], [74.9163, 32.6391], [76.8267, 30.3386], [77.166767, 28.714265]]}}, {"type": "Feature", "properties": {"shape_id": "00487", "corridor": "Indian Railways Mainline"}, "geometry": {"type": "LineString", "coordinates": [[73.012927, 26.248087], [73.327389, 25.790772], [73.147445, 25.114163], [78.57748, 12.560512], [79.1574, 9.2805], [78.1087, 9.9449], [79.50634, 13.636311], [73.147445, 25.114163], [73.327389, 25.790772], [73.012927, 26.248087]]}}, {"type": "Feature", "properties": {"shape_id": "00629", "corridor": "Indian Railways Mainline"}, "geometry": {"type": "LineString", "coordinates": [[77.551374, 13.023039], [78.5507, 17.4405], [77.294226, 28.512143]]}}, {"type": "Feature", "properties": {"shape_id": "00630", "corridor": "Indian Railways Mainline"}, "geometry": {"type": "LineString", "coordinates": [[77.294226, 28.512143], [78.5507, 17.4405], [77.551374, 13.023039]]}}, {"type": "Feature", "properties": {"shape_id": "00761", "corridor": "Indian Railways Mainline"}, "geometry": {"type": "LineString", "coordinates": [[79.50634, 13.636311], [80.618448, 16.518062], [79.348316, 19.848747], [79.089074, 21.153637], [77.412615, 23.259933], [77.294226, 28.512143], [77.254229, 28.58731]]}}, {"type": "Feature", "properties": {"shape_id": "00762", "corridor": "Indian Railways Mainline"}, "geometry": {"type": "LineString", "coordinates": [[77.254229, 28.58731], [77.294226, 28.512143], [77.412615, 23.259933], [79.089074, 21.153637], [80.618448, 16.518062], [79.50634, 13.636311]]}}, {"type": "Feature", "properties": {"shape_id": "00816", "corridor": "Indian Railways Mainline"}, "geometry": {"type": "LineString", "coordinates": [[81.828446, 25.445871], [81.9132, 25.6978], [81.996984, 25.9131355], [82.0663, 26.2632], [82.1293, 26.7681]]}}, {"type": "Feature", "properties": {"shape_id": "00901", "corridor": "Indian Railways Mainline"}, "geometry": {"type": "LineString", "coordinates": [[72.840643, 21.206418], [72.851071, 21.170766], [72.9563, 21.158], [82.986088, 25.326901], [85.166531, 25.696529], [85.377846, 26.122151], [85.409002, 26.088932]]}}, {"type": "Feature", "properties": {"shape_id": "00902", "corridor": "Indian Railways Mainline"}, "geometry": {"type": "LineString", "coordinates": [[85.409002, 26.088932], [85.377846, 26.122151], [82.986088, 25.326901], [72.9563, 21.158], [72.851071, 21.170766], [72.840643, 21.206418]]}}, {"type": "Feature", "properties": {"shape_id": "00903", "corridor": "Indian Railways Mainline"}, "geometry": {"type": "LineString", "coordinates": [[72.840965, 19.062341], [72.588902, 23.077166], [71.822777, 21.537881], [72.588902, 23.077166], [72.840965, 19.062341]]}}, {"type": "Feature", "properties": {"shape_id": "00907", "corridor": "Indian Railways Mainline"}, "geometry": {"type": "LineString", "coordinates": [[72.607012, 23.008727], [72.9662, 22.5617], [72.851071, 21.170766], [86.20019, 22.768584], [87.328606, 22.341582], [88.221588, 22.572963]]}}, {"type": "Feature", "properties": {"shape_id": "00908", "corridor": "Indian Railways Mainline"}, "geometry": {"type": "LineString", "coordinates": [[88.221588, 22.572963], [87.328606, 22.341582], [86.20019, 22.768584], [72.851071, 21.170766], [72.9662, 22.5617], [72.607012, 23.008727]]}}, {"type": "Feature", "properties": {"shape_id": "00933", "corridor": "Indian Railways Mainline"}, "geometry": {"type": "LineString", "coordinates": [[75.868149, 22.71729], [86.0377, 23.9878], [75.868149, 22.71729]]}}, {"type": "Feature", "properties": {"shape_id": "00961", "corridor": "Indian Railways Mainline"}, "geometry": {"type": "LineString", "coordinates": [[73.609171, 25.720349], [73.8134, 25.6243], [73.865204, 25.627133]]}}, {"type": "Feature", "properties": {"shape_id": "00962", "corridor": "Indian Railways Mainline"}, "geometry": {"type": "LineString", "coordinates": [[73.865204, 25.627133], [73.8134, 25.6243], [73.609171, 25.720349]]}}, {"type": "Feature", "properties": {"shape_id": "01003", "corridor": "Indian Railways Mainline"}, "geometry": {"type": "LineString", "coordinates": [[72.891669, 19.07025], [72.975547, 19.185887], [73.121266, 18.990429], [73.0874, 18.7394], [73.1239, 18.4468], [73.275719, 18.247326], [73.3473, 18.098], [73.409185, 17.712429], [73.522049, 17.542127], [73.515058, 17.404537], [73.545914, 17.201679], [73.357258, 17.003113], [73.592434, 16.921673], [73.619041, 16.785313], [73.626595, 16.635205], [73.707275, 16.511643], [73.73045, 16.387344], [73.720111, 16.259017], [73.67981, 16.111792], [73.67775, 16.017271], [73.785038, 15.866242], [73.876534, 15.62998], [73.924684, 15.490233], [73.970604, 15.267791]]}}, {"type": "Feature", "properties": {"shape_id": "01004", "corridor": "Indian Railways Mainline"}, "geometry": {"type": "LineString", "coordinates": [[73.970604, 15.267791], [73.924684, 15.490233], [73.876534, 15.62998], [73.785038, 15.866242], [73.67775, 16.017271], [73.67981, 16.111792], [73.720111, 16.259017], [73.73045, 16.387344], [73.707275, 16.511643], [73.626595, 16.635205], [73.619041, 16.785313], [73.592434, 16.921673], [73.357258, 17.003113], [73.545914, 17.201679], [73.522049, 17.542127], [73.409185, 17.712429], [73.3473, 18.098], [73.275719, 18.247326], [73.1239, 18.4468], [73.0874, 18.7394], [73.121266, 18.990429], [72.975547, 19.185887], [72.891669, 19.07025]]}}, {"type": "Feature", "properties": {"shape_id": "01007", "corridor": "Indian Railways Mainline"}, "geometry": {"type": "LineString", "coordinates": [[72.836523, 18.944101], [72.842982, 19.017189], [72.975547, 19.185887], [73.121266, 18.990429], [73.0874, 18.7394], [73.1239, 18.4468], [73.275719, 18.247326], [73.3473, 18.098], [73.409185, 17.712429], [73.522049, 17.542127], [73.515058, 17.404537], [73.53806, 17.316431], [73.545914, 17.201679], [73.357258, 17.003113], [73.592434, 16.921673], [73.619041, 16.785313], [73.626595, 16.635205], [73.707275, 16.511643], [73.73045, 16.387344], [73.720111, 16.259017], [73.67981, 16.111792], [73.67775, 16.017271], [73.785038, 15.866242], [73.876534, 15.62998], [73.924684, 15.490233], [73.970604, 15.267791]]}}, {"type": "Feature", "properties": {"shape_id": "01008", "corridor": "Indian Railways Mainline"}, "geometry": {"type": "LineString", "coordinates": [[73.970604, 15.267791], [73.924684, 15.490233], [73.876534, 15.62998], [73.785038, 15.866242], [73.67775, 16.017271], [73.67981, 16.111792], [73.720111, 16.259017], [73.73045, 16.387344], [73.707275, 16.511643], [73.626595, 16.635205], [73.619041, 16.785313], [73.592434, 16.921673], [73.357258, 17.003113], [73.545914, 17.201679], [73.53806, 17.316431], [73.515058, 17.404537], [73.522049, 17.542127], [73.409185, 17.712429], [73.3473, 18.098], [73.275719, 18.247326], [73.1239, 18.4468], [73.0874, 18.7394], [73.121266, 18.990429], [72.975547, 19.185887], [72.842982, 19.017189], [72.836523, 18.944101]]}}, {"type": "Feature", "properties": {"shape_id": "01023", "corridor": "Indian Railways Mainline"}, "geometry": {"type": "LineString", "coordinates": [[73.872886, 18.529178], [74.006653, 18.456163], [74.171791, 18.286897], [74.209213, 18.100497], [74.189987, 18.040279], [74.136257, 17.89103], [74.063387, 17.688021], [74.148102, 17.691456], [74.1722, 17.6122], [74.1558, 17.5142], [74.1446, 17.4047], [74.2161, 17.3104], [74.363666, 17.130046], [74.416108, 17.083902], [74.516401, 17.007668], [74.5884, 16.8582], [74.638839, 16.819946], [74.5514, 16.7911], [74.421687, 16.748044], [74.356585, 16.724742], [74.2993, 16.7039], [74.237795, 16.70267]]}}, {"type": "Feature", "properties": {"shape_id": "01024", "corridor": "Indian Railways Mainline"}, "geometry": {"type": "LineString", "coordinates": [[74.237795, 16.70267], [74.2993, 16.7039], [74.356585, 16.724742], [74.421687, 16.748044], [74.5514, 16.7911], [74.638839, 16.819946], [74.5884, 16.8582], [74.516401, 17.007668], [74.416108, 17.083902], [74.363666, 17.130046], [74.2161, 17.3104], [74.1446, 17.4047], [74.1558, 17.5142], [74.1722, 17.6122], [74.148102, 17.691456], [74.063387, 17.688021], [74.136257, 17.89103], [74.189987, 18.040279], [74.209213, 18.100497], [74.171791, 18.286897], [74.006653, 18.456163], [73.872886, 18.529178]]}}, {"type": "Feature", "properties": {"shape_id": "01053", "corridor": "Indian Railways Mainline"}, "geometry": {"type": "LineString", "coordinates": [[73.83688, 19.897099], [73.842287, 19.948017], [74.026909, 20.072056], [74.226, 20.1549], [74.4382, 20.2498], [75.5629, 21.0181], [75.788382, 21.046991], [76.1985, 21.3342], [76.353307, 21.823676], [77.7669, 22.608], [79.951029, 23.164746], [80.400953, 23.833795], [80.828197, 24.569099], [81.093607, 25.063442], [81.864796, 25.379548], [83.1196, 25.2785], [83.9817, 25.5616], [84.6625, 25.5488], [85.044909, 25.582201]]}}, {"type": "Feature", "properties": {"shape_id": "01054", "corridor": "Indian Railways Mainline"}, "geometry": {"type": "LineString", "coordinates": [[85.044909, 25.582201], [84.6625, 25.5488], [83.9817, 25.5616], [83.1196, 25.2785], [81.864796, 25.379548], [80.828197, 24.569099], [80.400953, 23.833795], [79.951029, 23.164746], [77.7669, 22.608], [76.353307, 21.823676], [76.1985, 21.3342], [75.788382, 21.046991], [75.5629, 21.0181], [74.4382, 20.2498]]}}, {"type": "Feature", "properties": {"shape_id": "01103", "corridor": "Indian Railways Mainline"}, "geometry": {"type": "LineString", "coordinates": [[72.836523, 18.944101], [72.842982, 19.017189], [72.975547, 19.185887], [73.121266, 18.990429], [73.0874, 18.7394], [73.1239, 18.4468], [73.275719, 18.247326], [73.3473, 18.098], [73.356571, 18.085649], [73.38438, 17.908019], [73.409185, 17.712429], [73.522049, 17.542127], [73.516002, 17.477742], [73.515058, 17.404537], [73.53806, 17.316431], [73.545914, 17.201679], [73.357258, 17.003113], [73.592434, 16.921673], [73.619041, 16.785313], [73.626595, 16.635205], [73.707275, 16.511643], [73.73045, 16.387344], [73.720111, 16.259017], [73.67981, 16.111792], [73.67775, 16.017271], [73.734055, 15.94763], [73.785038, 15.866242]]}}, {"type": "Feature", "properties": {"shape_id": "01104", "corridor": "Indian Railways Mainline"}, "geometry": {"type": "LineString", "coordinates": [[73.785038, 15.866242], [73.734055, 15.94763], [73.67775, 16.017271], [73.67981, 16.111792], [73.720111, 16.259017], [73.73045, 16.387344], [73.707275, 16.511643], [73.626595, 16.635205], [73.619041, 16.785313], [73.592434, 16.921673], [73.357258, 17.003113], [73.545914, 17.201679], [73.53806, 17.316431], [73.515058, 17.404537], [73.516002, 17.477742], [73.522049, 17.542127], [73.409185, 17.712429], [73.38438, 17.908019], [73.356571, 18.085649], [73.3473, 18.098], [73.275719, 18.247326], [73.1239, 18.4468], [73.0874, 18.7394], [73.121266, 18.990429], [72.975547, 19.185887], [72.842982, 19.017189], [72.836523, 18.944101]]}}, {"type": "Feature", "properties": {"shape_id": "01129", "corridor": "Indian Railways Mainline"}, "geometry": {"type": "LineString", "coordinates": [[72.891669, 19.07025], [72.975547, 19.185887], [73.121266, 18.990429], [73.0874, 18.7394], [73.1239, 18.4468], [73.275719, 18.247326], [73.409185, 17.712429], [73.522049, 17.542127], [73.515058, 17.404537], [73.53806, 17.316431], [73.545914, 17.201679], [73.357258, 17.003113], [73.592434, 16.921673], [73.619041, 16.785313], [73.626595, 16.635205], [73.707275, 16.511643], [73.73045, 16.387344], [73.720111, 16.259017], [73.67981, 16.111792], [73.67775, 16.017271], [73.785038, 15.866242]]}}, {"type": "Feature", "properties": {"shape_id": "01130", "corridor": "Indian Railways Mainline"}, "geometry": {"type": "LineString", "coordinates": [[73.785038, 15.866242], [73.734055, 15.94763], [73.67775, 16.017271], [73.67981, 16.111792], [73.720111, 16.259017], [73.73045, 16.387344], [73.707275, 16.511643], [73.626595, 16.635205], [73.619041, 16.785313], [73.592434, 16.921673], [73.357258, 17.003113], [73.545914, 17.201679], [73.53806, 17.316431], [73.515058, 17.404537], [73.522049, 17.542127], [73.409185, 17.712429], [73.275719, 18.247326], [73.1239, 18.4468], [73.0874, 18.7394], [73.121266, 18.990429], [72.975547, 19.185887], [72.891669, 19.07025]]}}, {"type": "Feature", "properties": {"shape_id": "01131", "corridor": "Indian Railways Mainline"}, "geometry": {"type": "LineString", "coordinates": [[72.891669, 19.07025], [72.975547, 19.185887], [73.121266, 18.990429], [73.0874, 18.7394], [73.1239, 18.4468], [73.275719, 18.247326], [73.409185, 17.712429], [73.522049, 17.542127], [73.515058, 17.404537], [73.53806, 17.316431], [73.545914, 17.201679], [73.357258, 17.003113], [73.592434, 16.921673], [73.619041, 16.785313], [73.626595, 16.635205], [73.707275, 16.511643], [73.73045, 16.387344], [73.720111, 16.259017], [73.67981, 16.111792], [73.67775, 16.017271], [73.734055, 15.94763], [73.785038, 15.866242]]}}, {"type": "Feature", "properties": {"shape_id": "01132", "corridor": "Indian Railways Mainline"}, "geometry": {"type": "LineString", "coordinates": [[73.785038, 15.866242], [73.734055, 15.94763], [73.67775, 16.017271], [73.67981, 16.111792], [73.720111, 16.259017], [73.73045, 16.387344], [73.707275, 16.511643], [73.626595, 16.635205], [73.619041, 16.785313], [73.592434, 16.921673], [73.357258, 17.003113], [73.545914, 17.201679], [73.53806, 17.316431], [73.515058, 17.404537], [73.522049, 17.542127], [73.409185, 17.712429], [73.275719, 18.247326], [73.1239, 18.4468], [73.0874, 18.7394], [73.121266, 18.990429], [72.975547, 19.185887], [72.891669, 19.07025]]}}, {"type": "Feature", "properties": {"shape_id": "01133", "corridor": "Indian Railways Mainline"}, "geometry": {"type": "LineString", "coordinates": [[73.0421, 19.1886], [73.080068, 19.155222], [73.0874, 19.0789], [73.1145, 19.0346], [73.121266, 18.990429], [73.145084, 18.951793], [73.1517, 18.8938], [73.1528, 18.8636], [73.119507, 18.841964], [73.0865, 18.82], [73.0874, 18.7394], [73.0798, 18.641], [73.1408, 18.54], [73.106847, 18.472527], [73.1239, 18.4468], [73.223491, 18.391914], [73.2448, 18.2978], [73.275719, 18.247326], [73.30297, 18.162938], [73.3473, 18.098], [73.356571, 18.085649], [73.404422, 17.998285], [73.38438, 17.908019], [73.418584, 17.855823], [73.420553, 17.769296], [73.409185, 17.712429], [73.399658, 17.620955], [73.522049, 17.542127]]}}, {"type": "Feature", "properties": {"shape_id": "01134", "corridor": "Indian Railways Mainline"}, "geometry": {"type": "LineString", "coordinates": [[73.522049, 17.542127], [73.399658, 17.620955], [73.409185, 17.712429], [73.420553, 17.769296], [73.418584, 17.855823], [73.38438, 17.908019], [73.404422, 17.998285], [73.356571, 18.085649], [73.3473, 18.098], [73.30297, 18.162938], [73.275719, 18.247326], [73.2448, 18.2978], [73.223491, 18.391914], [73.1239, 18.4468], [73.106847, 18.472527], [73.1408, 18.54], [73.0798, 18.641], [73.0874, 18.7394], [73.0865, 18.82], [73.119507, 18.841964], [73.1528, 18.8636], [73.1517, 18.8938], [73.145084, 18.951793], [73.121266, 18.990429], [73.1145, 19.0346], [73.0874, 19.0789], [73.080068, 19.155222], [73.0421, 19.1886]]}}, {"type": "Feature", "properties": {"shape_id": "01139", "corridor": "Indian Railways Mainline"}, "geometry": {"type": "LineString", "coordinates": [[79.089074, 21.153637], [78.5942, 20.7328], [78.3176, 20.7262], [78.137984, 20.784604], [77.73269, 20.857163], [77.005577, 20.723164], [76.2031, 20.8921], [75.788382, 21.046991], [73.842287, 19.948017], [73.5624, 19.6941], [73.13015, 19.235126], [73.121266, 18.990429], [73.1239, 18.4468], [73.275719, 18.247326], [73.409185, 17.712429], [73.522049, 17.542127], [73.545914, 17.201679], [73.357258, 17.003113], [73.626595, 16.635205], [73.707275, 16.511643], [73.720111, 16.259017], [73.67775, 16.017271], [73.785038, 15.866242], [73.876534, 15.62998], [73.924684, 15.490233], [73.970604, 15.267791]]}}, {"type": "Feature", "properties": {"shape_id": "01140", "corridor": "Indian Railways Mainline"}, "geometry": {"type": "LineString", "coordinates": [[73.970604, 15.267791], [73.924684, 15.490233], [73.876534, 15.62998], [73.785038, 15.866242], [73.67775, 16.017271], [73.720111, 16.259017], [73.707275, 16.511643], [73.626595, 16.635205], [73.357258, 17.003113], [73.545914, 17.201679], [73.522049, 17.542127], [73.409185, 17.712429], [73.275719, 18.247326], [73.1239, 18.4468], [73.121266, 18.990429], [73.13015, 19.235126], [73.5624, 19.6941], [73.842287, 19.948017], [75.788382, 21.046991], [76.2031, 20.8921], [77.005577, 20.723164], [77.73269, 20.857163], [78.137984, 20.784604], [78.3176, 20.7262], [78.5942, 20.7328], [79.089074, 21.153637]]}}, {"type": "Feature", "properties": {"shape_id": "01149", "corridor": "Indian Railways Mainline"}, "geometry": {"type": "LineString", "coordinates": [[73.045864, 19.268754], [73.13015, 19.235126], [73.5624, 19.6941], [73.842287, 19.948017], [74.4382, 20.2498], [75.5629, 21.0181], [75.788382, 21.046991], [77.005577, 20.723164], [77.73269, 20.857163], [78.5942, 20.7328], [79.089074, 21.153637], [80.190582, 21.462175], [81.629448, 21.256582], [82.167435, 22.057323], [84.0176, 21.8625], [84.862862, 22.22817], [85.627441, 22.678649], [86.20019, 22.768584], [87.328606, 22.341582], [88.221588, 22.572963]]}}]}